IRIDIUM 119             
1 42959U 17061E   25360.17053979  .00000328  00000+0  11017-3 0  9996
2 42959  86.3971  97.6028 0001898 101.5072 258.6337 14.34218224430012
IRIDIUM 107             
1 42960U 17061F   25359.70118878 -.00000002  00000+0 -77739-5 0  9991
2 42960  86.3971  97.8191 0002211 106.9581 253.1857 14.34217584429957
IRIDIUM 132             
1 42961U 17061G   25359.77729986  .00000135  00000+0  41172-4 0  9993
2 42961  86.3969  97.7678 0002133 100.3530 259.7907 14.34217842429965
IRIDIUM 136             
1 42962U 17061H   25359.80901204  .00000059  00000+0  14109-4 0  9998
2 42962  86.3972  97.7607 0002055 100.8811 259.2616 14.34218155429984
IRIDIUM 139             
1 42963U 17061J   25360.16419796  .00000101  00000+0  29125-4 0  9992
2 42963  86.3971  97.6712 0002196  99.6222 260.5222 14.34217884430042
IRIDIUM 125             
1 42964U 17061K   25359.80266669  .00000344  00000+0  11581-3 0  9996
2 42964  86.3973  97.8800 0002096 112.3844 247.7574 14.34216500430004
IRIDIUM 135             
1 43070U 17083A   25360.12563845  .00000185  00000+0  59018-4 0  9993
2 43070  86.3955  34.3464 0002118  92.9215 267.2223 14.34217655419349
IRIDIUM 138             
1 43071U 17083B   25360.15100782  .00000128  00000+0  38561-4 0  9991
2 43071  86.3970  34.0046 0001841  99.0658 261.0746 14.34217330419332
